NORAD_CAT_ID,OBJECT_NAME,OBJECT_TYPE,EPOCH,MEAN_MOTION,ECCENTRICITY,INCLINATION,RA_OF_ASC_NODE,ARG_OF_PERICENTER,MEAN_ANOMALY,BSTAR,MEAN_MOTION_DOT,MEAN_MOTION_DDOT,TLE_LINE0,TLE_LINE1,TLE_LINE2,SEMIMAJOR_AXIS,PERIOD,APOGEE,PERIGEE,DECAYED
55671.0,STARLINK-5460,PAYLOAD,2023-03-17 05:57:13,15.69938055,0.0003483,70.0008,72.6606,263.1927,96.8872,6.0727e-05,7.1e-05,0.0,0 STARLINK-5460,1 55671U 23021AV  23076.24806860  .00007100  00000-0  60727-4 0  9998,2 55671  70.0008  72.6606 0003483 263.1927  96.8872 15.69938055  4854,6737.211,91.723,361.423,356.73,0.0
55671.0,STARLINK-5460,PAYLOAD,2023-03-17 12:04:13,15.69928304,0.0003247,70.0,71.9434,262.2615,97.8212,3.3001e-05,3.758e-05,0.0,0 STARLINK-5460,1 55671U 23021AV  23076.50293860  .00003758  00000-0  33001-4 0  9997,2 55671  70.0000  71.9434 0003247 262.2615  97.8212 15.69928304  4898,6737.239,91.724,361.292,356.917,0.0
55671.0,STARLINK-5460,PAYLOAD,2023-03-17 16:39:29,15.6992116,0.0003076,70.0007,71.4067,265.3198,94.7647,1.1834e-05,1.21e-05,0.0,0 STARLINK-5460,1 55671U 23021AV  23076.69409265  .00001210  00000-0  11834-4 0  9996,2 55671  70.0007  71.4067 0003076 265.3198  94.7647 15.69921160  4927,6737.26,91.724,361.197,357.052,0.0
55671.0,STARLINK-5460,PAYLOAD,2023-03-18 11:00:30,15.69934592,0.0003632,70.0013,69.2564,263.8687,96.2095,3.7722e-05,4.327e-05,0.0,0 STARLINK-5460,1 55671U 23021AV  23077.45868639  .00004327  00000-0  37722-4 0  9991,2 55671  70.0013  69.2564 0003632 263.8687  96.2095 15.69934592  5046,6737.221,91.724,361.533,356.639,0.0
55671.0,STARLINK-5460,PAYLOAD,2023-03-18 21:42:46,15.69931929,0.0003602,70.0008,68.0025,269.2881,90.7902,1.6489e-05,1.771e-05,0.0,0 STARLINK-5460,1 55671U 23021AV  23077.90470274  .00001771  00000-0  16489-4 0  9992,2 55671  70.0008  68.0025 0003602 269.2881  90.7902 15.69931929  5421,6737.229,91.724,361.52,356.667,0.0
55671.0,STARLINK-5460,PAYLOAD,2023-03-19 05:21:32,15.69918306,0.0003487,70.0006,67.1062,266.8146,93.2651,-1.6329e-05,-2.175e-05,0.0,0 STARLINK-5460,1 55671U 23021AV  23078.22329060 -.00002175  00000-0 -16329-4 0  9998,2 55671  70.0006  67.1062 0003487 266.8146  93.2651 15.69918306  5162,6737.268,91.725,361.482,356.783,0.0
55671.0,STARLINK-5460,PAYLOAD,2023-03-19 08:25:02,15.69919465,0.000332,70.0006,66.7479,267.0277,93.0538,-1.1935e-05,-1.647e-05,0.0,0 STARLINK-5460,1 55671U 23021AV  23078.35072413 -.00001647  00000-0 -11935-4 0  9990,2 55671  70.0006  66.7479 0003320 267.0277  93.0538 15.69919465  5498,6737.264,91.724,361.366,356.893,0.0
55671.0,STARLINK-5460,PAYLOAD,2023-03-19 22:10:48,15.69925666,0.0003357,70.0011,65.136,269.4198,90.6613,2.7721e-05,3.122e-05,0.0,0 STARLINK-5460,1 55671U 23021AV  23078.92417450  .00003122  00000-0  27721-4 0  9995,2 55671  70.0011  65.1360 0003357 269.4198  90.6613 15.69925666  5581,6737.247,91.724,361.373,356.85,0.0
55671.0,STARLINK-5460,PAYLOAD,2023-03-20 05:49:34,15.6993893,0.000314,70.0012,64.2407,269.0062,91.0774,0.00012628,0.00015007,0.0,0 STARLINK-5460,1 55671U 23021AV  23079.24275661  .00015007  00000-0  12628-3 0  9991,2 55671  70.0012  64.2407 0003140 269.0062  91.0774 15.69938930  5323,6737.209,91.723,361.189,356.958,0.0
55671.0,STARLINK-5460,PAYLOAD,2023-03-20 10:24:49,15.69924387,0.0002722,70.0012,63.7015,275.6995,84.389,4.4309e-05,5.118e-05,0.0,0 STARLINK-5460,1 55671U 23021AV  23079.43391026  .00005118  00000-0  44309-4 0  9990,2 55671  70.0012  63.7015 0002722 275.6995  84.3890 15.69924387  5353,6737.25,91.724,360.949,357.281,0.0
55671.0,STARLINK-5460,PAYLOAD,2023-03-20 16:31:50,15.69927161,0.0002493,70.0021,62.986,272.6767,87.4143,4.8658e-05,5.642e-05,0.0,0 STARLINK-5460,1 55671U 23021AV  23079.68877766  .00005642  00000-0  48658-4 0  9990,2 55671  70.0021  62.9860 0002493 272.6767  87.4143 15.69927161  5708,6737.242,91.724,360.787,357.428,0.0
55671.0,STARLINK-5460,PAYLOAD,2023-03-21 10:52:51,15.69915314,0.000292,70.0014,60.8366,275.7616,84.3246,-2.473e-05,-3.183e-05,0.0,0 STARLINK-5460,1 55671U 23021AV  23080.45337846 -.00003183  00000-0 -24730-4 0  9992,2 55671  70.0014  60.8366 0002920 275.7616  84.3246 15.69915314  5516,6737.276,91.725,361.109,357.174,0.0
55671.0,STARLINK-5460,PAYLOAD,2023-03-22 05:13:53,15.6994394,0.0003336,70.0006,58.6864,270.9633,89.1181,0.0001573,0.00018759,0.0,0 STARLINK-5460,1 55671U 23021AV  23081.21797516  .00018759  00000-0  15730-3 0  9993,2 55671  70.0006  58.6864 0003336 270.9633  89.1181 15.69943940  5633,6737.194,91.723,361.307,356.812,0.0
55671.0,STARLINK-5460,PAYLOAD,2023-03-22 08:17:23,15.69924942,0.000258,70.0019,58.328,270.0514,90.0386,7.7665e-05,9.136e-05,0.0,0 STARLINK-5460,1 55671U 23021AV  23081.34541481  .00009136  00000-0  77665-4 0  9990,2 55671  70.0019  58.3280 0002580 270.0514  90.0386 15.69924942  5656,6737.249,91.724,360.852,357.376,0.0
55671.0,STARLINK-5460,PAYLOAD,2023-03-22 15:56:09,15.69947514,0.0002742,70.0026,57.4322,272.063,88.0251,0.0002147,0.00025705,0.0,0 STARLINK-5460,1 55671U 23021AV  23081.66399364  .00025705  00000-0  21470-3 0  9998,2 55671  70.0026  57.4322 0002742 272.0630  88.0251 15.69947514  5706,6737.184,91.723,360.896,357.202,0.0
55671.0,STARLINK-5460,PAYLOAD,2023-03-23 01:06:39,15.69935884,0.0003049,70.0015,56.3564,268.1804,91.9043,5.1272e-05,5.959e-05,0.0,0 STARLINK-5460,1 55671U 23021AV  23082.04629184  .00005959  00000-0  51272-4 0  9990,2 55671  70.0015  56.3564 0003049 268.1804  91.9043 15.69935884  5765,6737.217,91.723,361.137,357.028,0.0
55671.0,STARLINK-5460,PAYLOAD,2023-03-23 07:13:40,15.69922216,0.0003438,70.0019,55.6406,268.5355,91.5447,6.4965e-07,-1.35e-06,0.0,0 STARLINK-5460,1 55671U 23021AV  23082.30116125 -.00000135  00000-0  64965-6 0  9992,2 55671  70.0019  55.6406 0003438 268.5355  91.5447 15.69922216  5807,6737.257,91.724,361.438,356.805,0.0
55671.0,STARLINK-5460,PAYLOAD,2023-03-24 04:38:11,15.69963244,0.0003524,70.0011,53.136,266.1829,93.8963,8.6767e-05,0.0001025,0.0,0 STARLINK-5460,1 55671U 23021AV  23083.19318387  .00010250  00000-0  86767-4 0  9994,2 55671  70.0011  53.1360 0003524 266.1829  93.8963 15.69963244  5946,6737.139,91.722,361.378,356.63,0.0
55671.0,STARLINK-5460,PAYLOAD,2023-03-24 07:41:41,15.69946343,0.0002932,70.0011,52.7754,268.1082,91.9778,5.4724e-05,6.378e-05,0.0,0 STARLINK-5460,1 55671U 23021AV  23083.32062157  .00006378  00000-0  54724-4 0  9994,2 55671  70.0011  52.7754 0002932 268.1082  91.9778 15.69946343  5969,6737.188,91.723,361.028,357.077,0.0
55671.0,STARLINK-5460,PAYLOAD,2023-03-25 00:31:00,15.69889557,0.0004262,70.0018,50.8063,284.5717,75.5006,-3.9816e-05,-4.992e-05,0.0,0 STARLINK-5460,1 55671U 23021AV  23084.02153734 -.00004992  00000-0 -39816-4 0  9991,2 55671  70.0018  50.8063 0004262 284.5717  75.5006 15.69889557  6071,6737.35,91.726,362.086,356.344,0.0
55671.0,STARLINK-5460,PAYLOAD,2023-03-25 06:38:01,15.69900235,0.0003341,70.0003,50.0909,260.2847,99.7971,-2.058e-05,-2.684e-05,0.0,0 STARLINK-5460,1 55671U 23021AV  23084.27640136 -.00002684  00000-0 -20580-4 0  9999,2 55671  70.0003  50.0909 0003341 260.2847  99.7971 15.69900235  6119,6737.319,91.726,361.435,356.933,0.0
55671.0,STARLINK-5460,PAYLOAD,2023-03-26 04:02:31,15.69931702,0.0002969,70.0026,47.5826,260.1913,99.8948,-3.4473e-05,-4.356e-05,0.0,0 STARLINK-5460,1 55671U 23021AV  23085.16841517 -.00004356  00000-0 -34473-4 0  9998,2 55671  70.0026  47.5826 0002969 260.1913  99.8948 15.69931702  6254,6737.229,91.724,361.095,357.094,0.0
55671.0,STARLINK-5460,PAYLOAD,2023-03-26 22:23:33,15.69916975,0.0003401,70.0019,45.4339,260.4817,99.5994,3.7905e-05,4.346e-05,0.0,0 STARLINK-5460,1 55671U 23021AV  23085.93302758  .00004346  00000-0  37905-4 0  9992,2 55671  70.0019  45.4339 0003401 260.4817  99.5994 15.69916975  6680,6737.272,91.725,361.428,356.845,0.0
55671.0,STARLINK-5460,PAYLOAD,2023-03-26 23:55:18,15.69916524,0.000331,70.0025,45.2552,262.7422,97.3397,3.6716e-05,4.203e-05,0.0,0 STARLINK-5460,1 55671U 23021AV  23085.99674498  .00004203  00000-0  36716-4 0  9992,2 55671  70.0025  45.2552 0003310 262.7422  97.3397 15.69916524  6388,6737.273,91.725,361.368,356.908,0.0
55671.0,STARLINK-5460,PAYLOAD,2023-03-27 06:02:18,15.69928692,0.0002956,70.0011,44.5351,264.0322,96.0537,5.372e-05,6.252e-05,0.0,0 STARLINK-5460,1 55671U 23021AV  23086.25160265  .00006252  00000-0  53720-4 0  9994,2 55671  70.0011  44.5351 0002956 264.0322  96.0537 15.69928692  6427,6737.238,91.724,361.095,357.111,0.0
55671.0,STARLINK-5460,PAYLOAD,2023-03-28 06:30:19,15.69930302,0.0003416,70.0002,41.6706,265.1702,94.9104,3.0467e-05,3.453e-05,0.0,0 STARLINK-5460,1 55671U 23021AV  23087.27106390  .00003453  00000-0  30467-4 0  9999,2 55671  70.0002  41.6706 0003416 265.1702  94.9104 15.69930302  6580,6737.233,91.724,361.4,356.797,0.0
55671.0,STARLINK-5460,PAYLOAD,2023-03-28 21:47:51,15.69924536,0.0003382,69.9991,39.8775,258.7792,101.3023,1.3273e-05,1.383e-05,0.0,0 STARLINK-5460,1 55671U 23021AV  23087.90823504  .00001383  00000-0  13273-4 0  9998,2 55671  69.9991  39.8775 0003382 258.7792 101.3023 15.69924536  6998,6737.25,91.724,361.393,356.836,0.0
55671.0,STARLINK-5460,PAYLOAD,2023-03-28 23:19:36,15.69925145,0.0003362,70.001,39.6983,263.023,97.0584,8.7296e-06,8.37e-06,0.0,0 STARLINK-5460,1 55671U 23021AV  23087.97194962  .00000837  00000-0  87296-5 0  9994,2 55671  70.0010  39.6983 0003362 263.0230  97.0584 15.69925145  6693,6737.248,91.724,361.378,356.848,0.0
55671.0,STARLINK-5460,PAYLOAD,2023-03-29 06:58:21,15.6992876,0.0003266,70.0018,38.8049,252.1888,107.8951,8.4708e-06,8.06e-06,0.0,0 STARLINK-5460,1 55671U 23021AV  23088.29053157  .00000806  00000-0  84708-5 0  9991,2 55671  70.0018  38.8049 0003266 252.1888 107.8951 15.69928760  7051,6737.238,91.724,361.303,356.902,0.0
55671.0,STARLINK-5460,PAYLOAD,2023-03-29 23:47:38,15.69922907,0.0003052,70.0019,36.8331,255.4491,104.6367,8.1863e-06,7.72e-06,0.0,0 STARLINK-5460,1 55671U 23021AV  23088.99142061  .00000772  00000-0  81863-5 0  9992,2 55671  70.0019  36.8331 0003052 255.4491 104.6367 15.69922907  6853,6737.255,91.724,361.176,357.063,0.0
